{
  "type": "FeatureCollection",
  "features": [
    {
      "type": "Feature",
      "properties": {
        "norad_id": 37781,
        "name": "HAIYANG-2A",
        "group": "resource",
        "lat": 38.59181886126401,
        "lon": -171.4982514902613,
        "alt_km": 964.7292054258678,
        "timestamp": "2025-12-26T05:31:12.156694+00:00",
        "meta_object_name": "HAIYANG-2A",
        "meta_object_id": "2011-043A",
        "meta_epoch": "2025-12-25T23:36:55.836576",
        "meta_mean_motion": 13.78835846,
        "meta_eccentricity": 0.00015602,
        "meta_inclination": 99.338,
        "meta_ra_of_asc_node": 0.7142,
        "meta_arg_of_pericenter": 66.3452,
        "meta_mean_anomaly": 293.7863,
        "meta_ephemeris_type": 0,
        "meta_classification_type": "U",
        "meta_norad_cat_id": 37781,
        "meta_element_set_no": 999,
        "meta_rev_at_epoch": 72281,
        "meta_bstar": -0.00016284573,
        "meta_mean_motion_dot": -2.1e-06,
        "meta_mean_motion_ddot": 0,
        "tle_line1": "1 37781U 11043A   25359.98397959 -.00000210  00000+0 -16285-3 0  9997",
        "tle_line2": "2 37781  99.3380   0.7142 0001560  66.3452 293.7863 13.78835846722813"
      },
      "geometry": {
        "type": "Point",
        "coordinates": [
          -171.4982514902613,
          38.59181886126401
        ]
      }
    },
    {
      "type": "Feature",
      "properties": {
        "norad_id": 37791,
        "name": "RASAT",
        "group": "resource",
        "lat": -74.18397817934455,
        "lon": -120.74517354683643,
        "alt_km": 684.1654523032312,
        "timestamp": "2025-12-26T05:31:12.156705+00:00",
        "meta_object_name": "RASAT",
        "meta_object_id": "2011-044D",
        "meta_epoch": "2025-12-25T22:18:53.793792",
        "meta_mean_motion": 14.67927688,
        "meta_eccentricity": 0.00212755,
        "meta_inclination": 98.064,
        "meta_ra_of_asc_node": 88.9913,
        "meta_arg_of_pericenter": 25.0384,
        "meta_mean_anomaly": 85.9413,
        "meta_ephemeris_type": 0,
        "meta_classification_type": "U",
        "meta_norad_cat_id": 37791,
        "meta_element_set_no": 999,
        "meta_rev_at_epoch": 76776,
        "meta_bstar": 0.00014774059,
        "meta_mean_motion_dot": 7.99e-06,
        "meta_mean_motion_ddot": 0,
        "tle_line1": "1 37791U 11044D   25359.92978928  .00000799  00000+0  14774-3 0  9995",
        "tle_line2": "2 37791  98.0640  88.9913 0021275  25.0384  85.9413 14.67927688767764"
      },
      "geometry": {
        "type": "Point",
        "coordinates": [
          -120.74517354683643,
          -74.18397817934455
        ]
      }
    },
    {
      "type": "Feature",
      "properties": {
        "norad_id": 37841,
        "name": "SRMSAT",
        "group": "resource",
        "lat": 4.309441214454114,
        "lon": 38.28498602463702,
        "alt_km": 851.00725733944,
        "timestamp": "2025-12-26T05:31:12.156716+00:00",
        "meta_object_name": "SRMSAT",
        "meta_object_id": "2011-058D",
        "meta_epoch": "2025-12-25T10:55:52.472352",
        "meta_mean_motion": 14.11515651,
        "meta_eccentricity": 0.0011992,
        "meta_inclination": 19.9731,
        "meta_ra_of_asc_node": 30.9947,
        "meta_arg_of_pericenter": 92.4725,
        "meta_mean_anomaly": 296.1471,
        "meta_ephemeris_type": 0,
        "meta_classification_type": "U",
        "meta_norad_cat_id": 37841,
        "meta_element_set_no": 999,
        "meta_rev_at_epoch": 73324,
        "meta_bstar": 9.1991e-05,
        "meta_mean_motion_dot": 4.34e-06,
        "meta_mean_motion_ddot": 0,
        "tle_line1": "1 37841U 11058D   25359.45546843  .00000434  00000+0  91991-4 0  9994",
        "tle_line2": "2 37841  19.9731  30.9947 0011992  92.4725 296.1471 14.11515651733247"
      },
      "geometry": {
        "type": "Point",
        "coordinates": [
          38.28498602463702,
          4.309441214454114
        ]
      }
    },
    {
      "type": "Feature",
      "properties": {
        "norad_id": 38012,
        "name": "PLEIADES 1A",
        "group": "resource",
        "lat": -41.32006808605064,
        "lon": 80.05469348414769,
        "alt_km": 704.7176929111265,
        "timestamp": "2025-12-26T05:31:12.156726+00:00",
        "meta_object_name": "PLEIADES 1A",
        "meta_object_id": "2011-076F",
        "meta_epoch": "2025-12-25T23:29:09.401856",
        "meta_mean_motion": 14.58572503,
        "meta_eccentricity": 0.00010818,
        "meta_inclination": 98.1805,
        "meta_ra_of_asc_node": 72.5419,
        "meta_arg_of_pericenter": 77.1574,
        "meta_mean_anomaly": 1.7154,
        "meta_ephemeris_type": 0,
        "meta_classification_type": "U",
        "meta_norad_cat_id": 38012,
        "meta_element_set_no": 999,
        "meta_rev_at_epoch": 74674,
        "meta_bstar": 5.9825974e-05,
        "meta_mean_motion_dot": 2.33e-06,
        "meta_mean_motion_ddot": 0,
        "tle_line1": "1 38012U 11076F   25359.97858104  .00000233  00000+0  59826-4 0  9996",
        "tle_line2": "2 38012  98.1805  72.5419 0001081  77.1574   1.7154 14.58572503746742"
      },
      "geometry": {
        "type": "Point",
        "coordinates": [
          80.05469348414769,
          -41.32006808605064
        ]
      }
    },
    {
      "type": "Feature",
      "properties": {
        "norad_id": 38038,
        "name": "ZIYUAN 1-02C (ZY 1-02C)",
        "group": "resource",
        "lat": -49.58421217550669,
        "lon": 76.02469475437627,
        "alt_km": 776.7227261027965,
        "timestamp": "2025-12-26T05:31:12.156736+00:00",
        "meta_object_name": "ZIYUAN 1-02C (ZY 1-02C)",
        "meta_object_id": "2011-079A",
        "meta_epoch": "2025-12-25T23:38:54.170016",
        "meta_mean_motion": 14.38025976,
        "meta_eccentricity": 0.00075632,
        "meta_inclination": 98.4313,
        "meta_ra_of_asc_node": 65.7537,
        "meta_arg_of_pericenter": 103.9491,
        "meta_mean_anomaly": 20.0364,
        "meta_ephemeris_type": 0,
        "meta_classification_type": "U",
        "meta_norad_cat_id": 38038,
        "meta_element_set_no": 999,
        "meta_rev_at_epoch": 73431,
        "meta_bstar": 0.0001368518,
        "meta_mean_motion_dot": 3.71e-06,
        "meta_mean_motion_ddot": 0,
        "tle_line1": "1 38038U 11079A   25359.98534919  .00000371  00000+0  13685-3 0  9998",
        "tle_line2": "2 38038  98.4313  65.7537 0007563 103.9491  20.0364 14.38025976734311"
      },
      "geometry": {
        "type": "Point",
        "coordinates": [
          76.02469475437627,
          -49.58421217550669
        ]
      }
    },
    {
      "type": "Feature",
      "properties": {
        "norad_id": 38338,
        "name": "ARIRANG-3 (KOMPSAT-3)",
        "group": "resource",
        "lat": 8.655880222244335,
        "lon": -46.35631426027621,
        "alt_km": 688.7381219432336,
        "timestamp": "2025-12-26T05:31:12.156747+00:00",
        "meta_object_name": "ARIRANG-3 (KOMPSAT-3)",
        "meta_object_id": "2012-025B",
        "meta_epoch": "2025-12-25T22:54:31.286592",
        "meta_mean_motion": 14.61729459,
        "meta_eccentricity": 0.00046783,
        "meta_inclination": 98.3341,
        "meta_ra_of_asc_node": 314.6448,
        "meta_arg_of_pericenter": 290.9099,
        "meta_mean_anomaly": 69.16,
        "meta_ephemeris_type": 0,
        "meta_classification_type": "U",
        "meta_norad_cat_id": 38338,
        "meta_element_set_no": 999,
        "meta_rev_at_epoch": 72603,
        "meta_bstar": 0.00013047396,
        "meta_mean_motion_dot": 6.02e-06,
        "meta_mean_motion_ddot": 0,
        "tle_line1": "1 38338U 12025B   25359.95452878  .00000602  00000+0  13047-3 0  9992",
        "tle_line2": "2 38338  98.3341 314.6448 0004678 290.9099  69.1600 14.61729459726036"
      },
      "geometry": {
        "type": "Point",
        "coordinates": [
          -46.35631426027621,
          8.655880222244335
        ]
      }
    },
    {
      "type": "Feature",
      "properties": {
        "norad_id": 38709,
        "name": "EXACTVIEW-1 (ADS-1B)",
        "group": "resource",
        "lat": 21.76126042419244,
        "lon": 105.29072753224496,
        "alt_km": 805.8324532191173,
        "timestamp": "2025-12-26T05:31:12.156757+00:00",
        "meta_object_name": "EXACTVIEW-1 (ADS-1B)",
        "meta_object_id": "2012-039C",
        "meta_epoch": "2025-12-25T20:59:26.610720",
        "meta_mean_motion": 14.24913142,
        "meta_eccentricity": 0.00101081,
        "meta_inclination": 98.9638,
        "meta_ra_of_asc_node": 108.5404,
        "meta_arg_of_pericenter": 314.6853,
        "meta_mean_anomaly": 45.3501,
        "meta_ephemeris_type": 0,
        "meta_classification_type": "U",
        "meta_norad_cat_id": 38709,
        "meta_element_set_no": 999,
        "meta_rev_at_epoch": 69802,
        "meta_bstar": 8.8694024e-05,
        "meta_mean_motion_dot": 1.61e-06,
        "meta_mean_motion_ddot": 0,
        "tle_line1": "1 38709U 12039C   25359.87461355  .00000161  00000+0  88694-4 0  9991",
        "tle_line2": "2 38709  98.9638 108.5404 0010108 314.6853  45.3501 14.24913142698028"
      },
      "geometry": {
        "type": "Point",
        "coordinates": [
          105.29072753224496,
          21.76126042419244
        ]
      }
    }
  ]
}